FENGYUN 2G              
1 40367U 14090A   24113.99253762 -.00000288  00000+0  00000+0 0  9995
2 40367   3.6495  82.1299 0002345  75.9342 150.4927  1.00270021 34169
MUOS-3                  
1 40374U 15002A   24114.07132448 -.00000116  00000+0  00000+0 0  9994
2 40374   3.1653  34.0419 0052589 179.9338   7.8706  1.00271321 33942
INMARSAT 5-F2           
1 40384U 15005A   24114.03335118 -.00000274  00000+0  00000+0 0  9998
2 40384   0.0175 243.1356 0000101 158.5902 126.8340  1.00269023 33801
ABS-3A                  
1 40424U 15010A   24114.11532646 -.00000014  00000+0  00000+0 0  9995
2 40424   0.0147 258.0228 0001460  31.0944 321.0980  1.00271051 33496
EUTELSAT 115 WEST B     
1 40425U 15010B   24114.09296164 -.00000013  00000+0  00000+0 0  9994
2 40425   0.0138  90.9650 0000263 204.7168 194.5129  1.00272104 33562
EXPRESS-AM7             
1 40505U 15012A   24114.19547424  .00000163  00000+0  00000+0 0  9999
2 40505   0.0148 251.0303 0003420 135.6490 295.3980  1.00270268 33480
IRNSS-1D                
1 40547U 15018A   24113.78452226 -.00000296  00000+0  00000+0 0  9998
2 40547  27.6030 253.6636 0022369 183.4148 168.5576  1.00260394 33360
BEIDOU-3S IGSO-1S       
1 40549U 15019A   24113.99166740 -.00000156  00000+0  00000+0 0  9992
2 40549  50.6755 304.8372 0036364 191.2257 166.6299  1.00261665 33190
THOR 7                  
1 40613U 15022A   24114.33056362  .00000004  00000+0  00000+0 0  9996
2 40613   0.0176 203.7554 0002692 186.6450 299.8077  1.00273823 32941
TURKMENALEM52E/MONACOSAT
1 40617U 15023A   24114.41250574  .00000116  00000+0  00000+0 0  9995
2 40617   0.0131 190.3570 0002251 201.0650  21.0312  1.00271441 32963
DIRECTV 15              
1 40663U 15026A   24114.12156399 -.00000091  00000+0  00000+0 0  9990
2 40663   0.0545  82.8854 0000561 132.8422 296.8337  1.00271227 32661
SKY MEXICO-1            
1 40664U 15026B   24113.57896633 -.00000224  00000+0  00000+0 0  9999
2 40664   0.0129 224.9134 0002613 191.7296 284.1460  1.00268683 32572
METEOSAT-11 (MSG-4)     
1 40732U 15034A   24114.11785010  .00000079  00000+0  00000+0 0  9998
2 40732   1.2553  67.5595 0000824 232.9182 323.2492  1.00281252 32148
STAR ONE C4             
1 40733U 15034B   24113.52924512 -.00000255  00000+0  00000+0 0  9992
2 40733   0.0355  47.6409 0002597 345.8663 298.0980  1.00271900 32146
WGS F7 (USA 263)        
1 40746U 15036A   24114.15074465  .00000029  00000+0  00000+0 0  9999
2 40746   0.0150 270.4868 0000108 320.7502 209.6993  1.00271662 31997
INTELSAT 34 (IS-34)     
1 40874U 15039A   24114.47156190 -.00000273  00000+0  00000+0 0  9997
2 40874   0.0341 309.5158 0000179 355.7471  21.0143  1.00271820 31751
EUTELSAT 8 WEST B       
1 40875U 15039B   24113.88591038 -.00000055  00000+0  00000+0 0  9994
2 40875   0.0695   0.0012 0003856  31.2832 131.0538  1.00271848 31770
GSAT-6                  
1 40880U 15041A   24114.13229586 -.00000149  00000+0  00000+0 0  9992
2 40880   0.0745  95.1706 0002500 294.8268 311.8187  1.00272466 31711
INMARSAT 5-F3           
1 40882U 15042A   24114.29483303  .00000062  00000+0  00000+0 0  9994
2 40882   0.0173 243.8198 0000241 215.2421  38.4843  1.00269950 31684
MUOS-4                  
1 40887U 15044A   24113.85743973 -.00000081  00000+0  00000+0 0  9996
2 40887   3.0366  30.7956 0059204 359.6222 204.6277  1.00272480 31686
TJS-1                   
1 40892U 15046A   24113.88591183 -.00000145  00000+0  00000+0 0  9992
2 40892   0.0777  58.6781 0003830 359.5899 267.0525  1.00274361 31682
EXPRESS-AM8             
1 40895U 15048A   24114.39945236 -.00000099  00000+0  00000+0 0  9994
2 40895   0.0144 258.1033 0000379 117.5097 326.1276  1.00269885 31503
BEIDOU-3S IGSO-2S       
1 40938U 15053A   24113.75102222 -.00000155  00000+0  00000+0 0  9990
2 40938  50.4478 268.0476 0050341 188.0893 122.1056  1.00275579 31475
SKY MUSTER 1 (NBN1A)    
1 40940U 15054A   24114.15535630 -.00000267  00000+0  00000+0 0  9996
2 40940   0.0131 264.0630 0001881 128.4990  15.3176  1.00270836 31381
ARSAT 2                 
1 40941U 15054B   24113.57896633 -.00000215  00000+0  00000+0 0  9998
2 40941   0.0171 320.9018 0002076  69.0292 308.6160  1.00272530 31430
MORELOS 3               
1 40946U 15056A   24114.23280986 -.00000036  00000+0  00000+0 0  9998
2 40946   3.0524 350.6009 0002479 359.0616 192.7992  1.00272423 31402
APSTAR-9                
1 40982U 15059A   24114.52827043 -.00000253  00000+0  00000+0 0  9995
2 40982   0.0095 219.4890 0000365 322.7418   2.0272  1.00272592 31288
TURKSAT 4B              
1 40984U 15060A   24114.48383439  .00000127  00000+0  00000+0 0  9999
2 40984   0.0461  81.8767 0002420 318.3112  35.9985  1.00275075 31226
CHINASAT 2C (ZX 2C)     
1 41021U 15063A   24114.01229764 -.00000313  00000+0  00000+0 0  9992
2 41021   0.0573  57.0112 0003428 341.6556 280.7155  1.00273917 31134
GSAT-15                 
1 41028U 15065A   24113.75257867 -.00000248  00000+0  00000+0 0  9993
2 41028   0.0851  86.6828 0003336 321.5816 167.4608  1.00272915 30923
BADR-7 (ARABSAT-6B)     
1 41029U 15065B   24114.47887410  .00000158  00000+0  00000+0 0  9996
2 41029   0.0463 245.8148 0002278 352.0739 172.5352  1.00274458 31045
LAOSAT 1                
1 41034U 15067A   24114.21296578 -.00000331  00000+0  00000+0 0  9999
2 41034   0.0072  60.3527 0002423 297.2187  59.3518  1.00270061 30970
TELSTAR 12V             
1 41036U 15068A   24113.87370642 -.00000108  00000+0  00000+0 0  9990
2 41036   0.0195 247.5609 0002670 146.7394 116.6426  1.00270171 30854
ELEKTRO-L 2             
1 41105U 15074A   24114.18459642 -.00000101  00000+0  00000+0 0  9990
2 41105   4.7020  80.0961 0001424 227.3314 316.2104  1.00273443 30647
COSMOS 2513             
1 41121U 15075A   24114.14007647 -.00000127  00000+0  00000+0 0  9997
2 41121   0.0613  93.8820 0003342 306.8141 301.6605  1.00273360 30721
EXPRESS-AMU1            
1 41191U 15082A   24114.19469104  .00000167  00000+0  00000+0 0  9990
2 41191   0.0414  76.0783 0002981 302.3276 299.5146  1.00274521 30631
GAOFEN-4                
1 41194U 15083A   24114.49488625 -.00000322  00000+0  00000+0 0  9990
2 41194   0.0803  78.1477 0002501  81.2311 336.5102  1.00272955 30622
BELINTERSAT-1           
1 41238U 16001A   24113.85188281  .00000118  00000+0  00000+0 0  9996
2 41238   0.0242  63.4670 0001199 166.2775 339.7963  1.00270505 30359
IRNSS-1E                
1 41241U 16003A   24112.90404025 -.00000272  00000+0  00000+0 0  9996
2 41241  31.5077  74.3170 0018688 184.8898  28.4939  1.00272218 30311
EUTELSAT 9B             
1 41310U 16005A   24114.33247812  .00000074  00000+0  00000+0 0  9992
2 41310   0.0631  68.0957 0002774 288.5225 343.9277  1.00271698 30246
SES-9                   
1 41380U 16013A   24114.22757880 -.00000333  00000+0  00000+0 0  9996
2 41380   0.0146 289.7645 0002251 127.5557 344.6717  1.00271239 29886
EUTELSAT 65 WEST A      
1 41382U 16014A   24113.74490223 -.00000265  00000+0  00000+0 0  9994
2 41382   0.0636  41.8886 0001928 351.2942  21.0745  1.00270921 29660
IRNSS-1F                
1 41384U 16015A   24113.76439529  .00000173  00000+0  00000+0 0  9998
2 41384   3.4397 119.8153 0019287 189.1817 210.0467  1.00250836 29789
BEIDOU-2 IGSO-6         
1 41434U 16021A   24113.82069812 -.00000170  00000+0  00000+0 0  9990
2 41434  59.1009  45.9088 0048868 225.0439 331.6748  1.00281934 29590
IRNSS-1G                
1 41469U 16027A   24114.49958546 -.00000319  00000+0  00000+0 0  9994
2 41469   3.3182 121.0596 0005792 316.1041  84.1778  1.00266301 29304
JCSAT-2B                
1 41471U 16028A   24114.53138385 -.00000153  00000+0  00000+0 0  9990
2 41471   0.0118 226.5147 0001091 196.3692 134.4700  1.00268609 29229
THAICOM 8               
1 41552U 16031A   24113.90882602 -.00000111  00000+0  00000+0 0  9996
2 41552   0.0574  40.4534 0004181 354.4759 222.2247  1.00272404 28849
INTELSAT 31 (IS-31)     
1 41581U 16035A   24113.68919618 -.00000140  00000+0  00000+0 0  9997
2 41581   0.0123 172.7802 0001674  10.3058 181.1844  1.00271260 28814
BEIDOU-2 G7             
1 41586U 16037A   24114.49584351 -.00000339  00000+0  00000+0 0  9996
2 41586   1.7757  68.9061 0009361 327.3238 104.7778  1.00267636 28915
ABS-2A (MONGOLSAT-1)    
1 41588U 16038A   24114.48870765 -.00000071  00000+0  00000+0 0  9998
2 41588   0.0261 250.4163 0001687  94.4523 117.8342  1.00268615 28822
EUTELSAT 117 WEST B     
1 41589U 16038B   24114.23060817  .00000000  00000+0  00000+0 0  9992
2 41589   0.0154  92.6997 0000156 164.6257 280.4505  1.00271491 28834
BRISAT                  
1 41591U 16039A   24114.52795002 -.00000183  00000+0  00000+0 0  9992
2 41591   0.0197 258.2333 0002189 131.8066 162.5828  1.00271405 28776
ECHOSTAR 18             
1 41592U 16039B   24114.03213288 -.00000271  00000+0  00000+0 0  9998
2 41592   0.0182 243.0312 0001626 156.4260 122.3290  1.00272392 28744
MUOS-5                  
1 41622U 16041A   24114.23715340 -.00000133  00000+0  00000+0 0  9990
2 41622   4.0119 297.0937 0191960 251.3650   3.6244  1.00272013 29193
TIANTONG-1 1            
1 41725U 16048A   24114.06450528 -.00000305  00000+0  00000+0 0  9997
2 41725   2.5706  27.7682 0006438 346.9427 321.4480  1.00267762 28394
JCSAT-16                
1 41729U 16050A   24113.89146622 -.00000241  00000+0  00000+0 0  9990
2 41729   0.0189 240.8275 0002179 199.2935 236.1818  1.00268399 28195
USA 270                 
1 41744U 16052A   24112.35255264 -.00000308  00000+0  00000+0 0  9996
2 41744   2.1707  87.1835 0002268 224.3630 157.9810  1.00343005 20244
USA 271                 
1 41745U 16052B   24109.23468751 -.00000253  00000+0  00000+0 0  9996
2 41745   2.1368  87.2211 0010572  14.5579 123.1059  0.99948589 20004
INTELSAT 36 (IS-36)     
1 41747U 16053A   24113.85743973 -.00000014  00000+0  00000+0 0  9999
2 41747   0.0123 306.3888 0001099  55.5082 226.6801  1.00272467 28072
